[{"OBJECT_NAME":"STARLINK-4432","OBJECT_ID":"2022-099Y","EPOCH":"2026-03-09T22:06:52.901568","MEAN_MOTION":15.05636048,"ECCENTRICITY":9.595e-5,"INCLINATION":97.6019,"RA_OF_ASC_NODE":191.4441,"ARG_OF_PERICENTER":99.2216,"MEAN_ANOMALY":260.912,"EPHEMERIS_TYPE":0,"CLASSIFICATION_TYPE":"U","NORAD_CAT_ID":53487,"ELEMENT_SET_NO":999,"REV_AT_EPOCH":19608,"BSTAR":-1.3025967e-5,"MEAN_MOTION_DOT":-2.49e-6,"MEAN_MOTION_DDOT":0},{"OBJECT_NAME":"TITAN 4B DEB","OBJECT_ID":"2000-047C","EPOCH":"2026-03-09T02:32:29.436864","MEAN_MOTION":14.9171765,"ECCENTRICITY":0.00575622,"INCLINATION":67.9942,"RA_OF_ASC_NODE":238.0618,"ARG_OF_PERICENTER":121.1285,"MEAN_ANOMALY":239.5519,"EPHEMERIS_TYPE":0,"CLASSIFICATION_TYPE":"U","NORAD_CAT_ID":27469,"ELEMENT_SET_NO":999,"REV_AT_EPOCH":28480,"BSTAR":9.2128473e-5,"MEAN_MOTION_DOT":8.38e-6,"MEAN_MOTION_DDOT":0}]
